start=new Date('2021-10-09T00:00:00.000Z').valueOf();
sats=[{"RA_OF_ASC_NODE":"102.0965","MEAN_MOTION":"15.06394856","COUNTRY_CODE":"US","OBJECT_TYPE":"PAYLOAD","EPOCH":"2021-10-08T19:37:23.231136","DECAY_DATE":null,"INCLINATION":"53.0563","GP_ID":"186596941","LAUNCH_DATE":"2021-01-20","MEAN_MOTION_DDOT":"0.0000000000000","REV_AT_EPOCH":"3994","SEMIMAJOR_AXIS":"6925.364","MEAN_ELEMENT_THEORY":"SGP4","FILE":"3152020","RCS_SIZE":"LARGE","PERIAPSIS":"545.983","TLE_LINE1":"1 47357U 21005J   21281.81762999  .00001892  00000-0  14591-3 0  9992","SITE":"AFETR","TLE_LINE2":"2 47357  53.0563 102.0965 0001799  91.6620 268.4575 15.06394856 39942","ELEMENT_SET_NO":"999","TIME_SYSTEM":"UTC","MEAN_ANOMALY":"268.4575","EPHEMERIS_TYPE":"0","CENTER_NAME":"EARTH","REF_FRAME":"TEME","NORAD_CAT_ID":"47357","OBJECT_NAME":"STARLINK-2050","APOAPSIS":"548.475","PERIOD":"95.592","ARG_OF_PERICENTER":"91.6620","MEAN_MOTION_DOT":"0.00001892","CLASSIFICATION_TYPE":"U","OBJECT_ID":"2021-005J","BSTAR":"0.00014591000000","ECCENTRICITY":"0.00017990"},{"APOAPSIS":"548.276","OBJECT_NAME":"STARLINK-2055","REF_FRAME":"TEME","NORAD_CAT_ID":"47358","MEAN_MOTION_DOT":"-0.00000410","ARG_OF_PERICENTER":"104.7470","PERIOD":"95.592","CLASSIFICATION_TYPE":"U","ECCENTRICITY":"0.00015140","BSTAR":"-0.00000860160000","OBJECT_ID":"2021-005K","TIME_SYSTEM":"UTC","ELEMENT_SET_NO":"999","MEAN_ANOMALY":"255.3687","CENTER_NAME":"EARTH","EPHEMERIS_TYPE":"0","SEMIMAJOR_AXIS":"6925.363","FILE":"3152020","MEAN_ELEMENT_THEORY":"SGP4","TLE_LINE2":"2 47358  53.0558  72.3622 0001514 104.7470 255.3687 15.06395395 40355","SITE":"AFETR","TLE_LINE1":"1 47358U 21005K   21281.75404227 -.00000410  00000-0 -86016-5 0  9993","RCS_SIZE":"LARGE","PERIAPSIS":"546.179","COUNTRY_CODE":"US","RA_OF_ASC_NODE":"72.3622","MEAN_MOTION":"15.06395395","OBJECT_TYPE":"PAYLOAD","GP_ID":"186595693","INCLINATION":"53.0558","DECAY_DATE":null,"EPOCH":"2021-10-08T18:05:49.252128","REV_AT_EPOCH":"4035","MEAN_MOTION_DDOT":"0.0000000000000","LAUNCH_DATE":"2021-01-20"},{"OBJECT_ID":"2021-005L","ECCENTRICITY":"0.00023830","BSTAR":"-0.00114700000000","CLASSIFICATION_TYPE":"U","ARG_OF_PERICENTER":"83.0660","PERIOD":"95.600","MEAN_MOTION_DOT":"-0.00017266","REF_FRAME":"TEME","NORAD_CAT_ID":"47359","APOAPSIS":"549.265","OBJECT_NAME":"STARLINK-2069","CENTER_NAME":"EARTH","EPHEMERIS_TYPE":"0","MEAN_ANOMALY":"277.0600","TIME_SYSTEM":"UTC","ELEMENT_SET_NO":"999","TLE_LINE1":"1 47359U 21005L   21281.76475193 -.00017266  00000-0 -11470-2 0  9991","PERIAPSIS":"545.964","RCS_SIZE":"LARGE","TLE_LINE2":"2 47359  53.0556  97.3250 0002383  83.0660 277.0600 15.06269072 40003","SITE":"AFETR","MEAN_ELEMENT_THEORY":"SGP4","FILE":"3152020","SEMIMAJOR_AXIS":"6925.750","LAUNCH_DATE":"2021-01-20","REV_AT_EPOCH":"4000","MEAN_MOTION_DDOT":"0.0000000000000","DECAY_DATE":null,"EPOCH":"2021-10-08T18:21:14.566752","GP_ID":"186595943","INCLINATION":"53.0556","OBJECT_TYPE":"PAYLOAD","MEAN_MOTION":"15.06269072","RA_OF_ASC_NODE":"97.3250","COUNTRY_CODE":"US"},{"TLE_LINE2":"2 47360  53.0565  67.5902 0001954  86.1211 274.0001 15.06392622 40423","SITE":"AFETR","PERIAPSIS":"545.883","RCS_SIZE":"LARGE","TLE_LINE1":"1 47360U 21005M   21281.70474488  .00000625  00000-0  60866-4 0  9997","SEMIMAJOR_AXIS":"6925.371","FILE":"3152020","MEAN_ELEMENT_THEORY":"SGP4","INCLINATION":"53.0565","GP_ID":"186596194","EPOCH":"2021-10-08T16:54:49.957632","DECAY_DATE":null,"MEAN_MOTION_DDOT":"0.0000000000000","REV_AT_EPOCH":"4042","LAUNCH_DATE":"2021-01-20","COUNTRY_CODE":"US","RA_OF_ASC_NODE":"67.5902","MEAN_MOTION":"15.06392622","OBJECT_TYPE":"PAYLOAD","CLASSIFICATION_TYPE":"U","BSTAR":"0.00006086600000","ECCENTRICITY":"0.00019540","OBJECT_ID":"2021-005M","OBJECT_NAME":"STARLINK-2070","APOAPSIS":"548.589","REF_FRAME":"TEME","NORAD_CAT_ID":"47360","MEAN_MOTION_DOT":"0.00000625","ARG_OF_PERICENTER":"86.1211","PERIOD":"95.593","EPHEMERIS_TYPE":"0","CENTER_NAME":"EARTH","ELEMENT_SET_NO":"999","TIME_SYSTEM":"UTC","MEAN_ANOMALY":"274.0001"},{"MEAN_ANOMALY":"274.4671","TIME_SYSTEM":"UTC","ELEMENT_SET_NO":"999","CENTER_NAME":"EARTH","EPHEMERIS_TYPE":"0","PERIOD":"95.592","ARG_OF_PERICENTER":"85.6562","MEAN_MOTION_DOT":"0.00001953","REF_FRAME":"TEME","NORAD_CAT_ID":"47361","APOAPSIS":"548.679","OBJECT_NAME":"STARLINK-2071","OBJECT_ID":"2021-005N","ECCENTRICITY":"0.00021370","BSTAR":"0.00014997000000","CLASSIFICATION_TYPE":"U","OBJECT_TYPE":"PAYLOAD","RA_OF_ASC_NODE":"72.0264","MEAN_MOTION":"15.06404686","COUNTRY_CODE":"US","LAUNCH_DATE":"2021-01-20","REV_AT_EPOCH":"4036","MEAN_MOTION_DDOT":"0.0000000000000","DECAY_DATE":null,"EPOCH":"2021-10-08T19:51:58.819104","GP_ID":"186596441","INCLINATION":"53.0537","MEAN_ELEMENT_THEORY":"SGP4","FILE":"3152020","SEMIMAJOR_AXIS":"6925.334","TLE_LINE1":"1 47361U 21005N   21281.82776411  .00001953  00000-0  14997-3 0  9990","RCS_SIZE":"LARGE","PERIAPSIS":"545.719","TLE_LINE2":"2 47361  53.0537  72.0264 0002137  85.6562 274.4671 15.06404686 40366","SITE":"AFETR"},{"GP_ID":"186595193","INCLINATION":"53.0533","DECAY_DATE":null,"EPOCH":"2021-10-08T19:21:27.219456","REV_AT_EPOCH":"3994","MEAN_MOTION_DDOT":"0.0000000000000","LAUNCH_DATE":"2021-01-20","COUNTRY_CODE":"US","RA_OF_ASC_NODE":"102.1401","MEAN_MOTION":"15.06392479","OBJECT_TYPE":"PAYLOAD","SITE":"AFETR","TLE_LINE2":"2 47362  53.0533 102.1401 0001784  88.8199 271.2994 15.06392479 39940","TLE_LINE1":"1 47362U 21005P   21281.80656504  .00000955  00000-0  83033-4 0  9998","PERIAPSIS":"546.001","RCS_SIZE":"LARGE","SEMIMAJOR_AXIS":"6925.372","FILE":"3152020","MEAN_ELEMENT_THEORY":"SGP4","CENTER_NAME":"EARTH","EPHEMERIS_TYPE":"0","TIME_SYSTEM":"UTC","ELEMENT_SET_NO":"999","MEAN_ANOMALY":"271.2994","CLASSIFICATION_TYPE":"U","ECCENTRICITY":"0.00017840","BSTAR":"0.00008303300000","OBJECT_ID":"2021-005P","APOAPSIS":"548.472","OBJECT_NAME":"STARLINK-2076","REF_FRAME":"TEME","NORAD_CAT_ID":"47362","MEAN_MOTION_DOT":"0.00000955","ARG_OF_PERICENTER":"88.8199","PERIOD":"95.593"},{"OBJECT_TYPE":"PAYLOAD","RA_OF_ASC_NODE":"102.1192","MEAN_MOTION":"15.06405246","COUNTRY_CODE":"US","LAUNCH_DATE":"2021-01-20","REV_AT_EPOCH":"3994","MEAN_MOTION_DDOT":"0.0000000000000","DECAY_DATE":null,"EPOCH":"2021-10-08T19:26:45.356352","GP_ID":"186595443","INCLINATION":"53.0535","MEAN_ELEMENT_THEORY":"SGP4","FILE":"3152020","SEMIMAJOR_AXIS":"6925.332","TLE_LINE1":"1 47363U 21005Q   21281.81024718  .00001383  00000-0  11174-3 0  9998","RCS_SIZE":"LARGE","PERIAPSIS":"546.161","TLE_LINE2":"2 47363  53.0535 102.1192 0001496  85.1413 274.9747 15.06405246 39942","SITE":"AFETR","MEAN_ANOMALY":"274.9747","TIME_SYSTEM":"UTC","ELEMENT_SET_NO":"999","CENTER_NAME":"EARTH","EPHEMERIS_TYPE":"0","ARG_OF_PERICENTER":"85.1413","PERIOD":"95.592","MEAN_MOTION_DOT":"0.00001383","REF_FRAME":"TEME","NORAD_CAT_ID":"47363","APOAPSIS":"548.234","OBJECT_NAME":"STARLINK-2077","OBJECT_ID":"2021-005Q","ECCENTRICITY":"0.00014960","BSTAR":"0.00011174000000","CLASSIFICATION_TYPE":"U"},{"EPHEMERIS_TYPE":"0","CENTER_NAME":"EARTH","MEAN_ANOMALY":"271.1723","ELEMENT_SET_NO":"999","TIME_SYSTEM":"UTC","OBJECT_ID":"2021-005R","BSTAR":"0.00021554000000","ECCENTRICITY":"0.00018290","CLASSIFICATION_TYPE":"U","ARG_OF_PERICENTER":"88.9476","PERIOD":"95.592","MEAN_MOTION_DOT":"0.00002930","REF_FRAME":"TEME","NORAD_CAT_ID":"47364","OBJECT_NAME":"STARLINK-2079","APOAPSIS":"548.488","LAUNCH_DATE":"2021-01-20","MEAN_MOTION_DDOT":"0.0000000000000","REV_AT_EPOCH":"3994","EPOCH":"2021-10-08T20:14:33.612576","DECAY_DATE":null,"INCLINATION":"53.0533","GP_ID":"186596695","OBJECT_TYPE":"PAYLOAD","RA_OF_ASC_NODE":"101.9527","MEAN_MOTION":"15.06397612","COUNTRY_CODE":"US","RCS_SIZE":"LARGE","PERIAPSIS":"545.954","TLE_LINE1":"1 47364U 21005R   21281.84344459  .00002930  00000-0  21554-3 0  9991","TLE_LINE2":"2 47364  53.0533 101.9527 0001829  88.9476 271.1723 15.06397612 39940","SITE":"AFETR","FILE":"3152020","MEAN_ELEMENT_THEORY":"SGP4","SEMIMAJOR_AXIS":"6925.356"},{"LAUNCH_DATE":"2021-01-20","MEAN_MOTION_DDOT":"0.0000000000000","REV_AT_EPOCH":"4128","EPOCH":"2021-10-08T16:57:00.478656","DECAY_DATE":null,"INCLINATION":"53.0512","GP_ID":"186596942","OBJECT_TYPE":"PAYLOAD","RA_OF_ASC_NODE":"5.8529","MEAN_MOTION":"15.73175450","COUNTRY_CODE":"US","RCS_SIZE":"LARGE","PERIAPSIS":"346.984","TLE_LINE1":"1 47365U 21005S   21281.70625554  .00021617  00000-0  15814-3 0  9990","TLE_LINE2":"2 47365  53.0512   5.8529 0004231 357.6251   2.4746 15.73175450 41287","SITE":"AFETR","FILE":"3152020","MEAN_ELEMENT_THEORY":"SGP4","SEMIMAJOR_AXIS":"6727.965","EPHEMERIS_TYPE":"0","CENTER_NAME":"EARTH","MEAN_ANOMALY":"2.4746","ELEMENT_SET_NO":"999","TIME_SYSTEM":"UTC","OBJECT_ID":"2021-005S","BSTAR":"0.00015814000000","ECCENTRICITY":"0.00042310","CLASSIFICATION_TYPE":"U","PERIOD":"91.535","ARG_OF_PERICENTER":"357.6251","MEAN_MOTION_DOT":"0.00021617","REF_FRAME":"TEME","NORAD_CAT_ID":"47365","OBJECT_NAME":"STARLINK-2080","APOAPSIS":"352.677"},{"MEAN_ELEMENT_THEORY":"SGP4","FILE":"3152020","SEMIMAJOR_AXIS":"6925.340","PERIAPSIS":"545.884","RCS_SIZE":"LARGE","TLE_LINE1":"1 47366U 21005T   21281.76969838  .00001280  00000-0  10483-3 0  9994","SITE":"AFETR","TLE_LINE2":"2 47366  53.0555 102.2914 0001907  88.0099 272.1108 15.06402890 39931","OBJECT_TYPE":"PAYLOAD","MEAN_MOTION":"15.06402890","RA_OF_ASC_NODE":"102.2914","COUNTRY_CODE":"US","LAUNCH_DATE":"2021-01-20","MEAN_MOTION_DDOT":"0.0000000000000","REV_AT_EPOCH":"3993","EPOCH":"2021-10-08T18:28:21.940032","DECAY_DATE":null,"INCLINATION":"53.0555","GP_ID":"186595694","ARG_OF_PERICENTER":"88.0099","PERIOD":"95.592","MEAN_MOTION_DOT":"0.00001280","REF_FRAME":"TEME","NORAD_CAT_ID":"47366","OBJECT_NAME":"STARLINK-2081","APOAPSIS":"548.525","OBJECT_ID":"2021-005T","BSTAR":"0.00010483000000","ECCENTRICITY":"0.00019070","CLASSIFICATION_TYPE":"U","MEAN_ANOMALY":"272.1108","ELEMENT_SET_NO":"999","TIME_SYSTEM":"UTC","EPHEMERIS_TYPE":"0","CENTER_NAME":"EARTH"}];
